QIANFAN-81              
1 63167U 25046J   25334.86108196  .00000131  00000+0  18415-3 0  9992
2 63167  88.9754 321.1022 0015466 148.7153 211.4921 13.50998438 45883
QIANFAN-82              
1 63168U 25046K   25334.89490080  .00000107  00000+0  14761-3 0  9995
2 63168  88.9754 321.1426 0013388 155.1057 205.0743 13.50972461 45876
QIANFAN-83              
1 63169U 25046L   25334.87068248  .00000079  00000+0  86290-4 0  9996
2 63169  88.9755 320.9448 0015097 142.4633 217.7582 13.61970586 45988
QIANFAN-84              
1 63170U 25046M   25334.84873868 -.00000064  00000+0 -11734-3 0  9993
2 63170  88.9750 321.2802 0016417 153.4964 206.7030 13.50984802 45798
QIANFAN-85              
1 63171U 25046N   25334.84540258  .00000127  00000+0  17823-3 0  9991
2 63171  88.9754 321.1522 0013771 154.2916 205.8922 13.50972398 45862
QIANFAN-86              
1 63172U 25046P   25334.85373108  .00000114  00000+0  15710-3 0  9990
2 63172  88.9756 321.0132 0011542 157.0193 203.1477 13.50972518 45942
QIANFAN-87              
1 63173U 25046Q   25334.89911022  .00000045  00000+0  51583-4 0  9990
2 63173  88.9752 321.1207 0012330 152.9108 207.2689 13.50971430 45884
QIANFAN-88              
1 63174U 25046R   25334.84142791  .00000097  00000+0  13213-3 0  9999
2 63174  88.9755 321.0808 0012481 160.9264 199.2357 13.50977139 45900
